EROS C3                 
1 54880U 22179A   26193.86718564  .00003194  00000+0  17341-3 0  9997
2 54880 139.3345 151.5967 0006923 163.7244 196.3786 15.11022149196211
