{"fetched_at":"2026-07-13T07:48:13.622Z","source":"https://celestrak.org/NORAD/elements/gp.php?NAME=EROS&FORMAT=JSON","constellation":"eros","records":[{"OBJECT_NAME":"EROS C3","OBJECT_ID":"2022-179A","EPOCH":"2026-07-12T20:48:44.839296","CLASSIFICATION_TYPE":"U","MEAN_MOTION":15.11022149,"ECCENTRICITY":0.0006923,"INCLINATION":139.3345,"RA_OF_ASC_NODE":151.5967,"ARG_OF_PERICENTER":163.7244,"MEAN_ANOMALY":196.3786,"EPHEMERIS_TYPE":0,"NORAD_CAT_ID":54880,"ELEMENT_SET_NO":999,"REV_AT_EPOCH":19621,"BSTAR":0.00017341,"MEAN_MOTION_DOT":0.00003194,"MEAN_MOTION_DDOT":0}]}
